PROBA-1                 
1 26958U 01049B   26182.60650376  .00003576  00000+0  23128-3 0  9995
2 26958  97.9593 191.6428 0056707  74.6712 286.0772 15.07561001345793
CUTE-1 (CO-55)          
1 27844U 03031E   26182.50822858  .00000299  00000+0  14842-3 0  9990
2 27844  98.6736 190.8869 0010387 138.3809 221.8162 14.24344446193717
CUBESAT XI-IV (CO-57)   
1 27848U 03031J   26182.50387728  .00000247  00000+0  12755-3 0  9990
2 27848  98.6768 190.5840 0009878 155.7692 204.3953 14.23628338193413
APRIZESAT 4             
1 35684U 09041D   26182.14789819  .00000751  00000+0  96134-4 0  9995
2 35684  98.1410 257.7465 0041887 276.5074  83.1371 14.83897710913437
APRIZESAT 3             
1 35686U 09041F   26182.14247965  .00001011  00000+0  91993-4 0  9996
2 35686  98.2078 336.0363 0062086  22.0128 338.3737 14.96279358918461
PROBA-2                 
1 36037U 09059B   26182.47699538  .00000197  00000+0  56486-4 0  9991
2 36037  98.2452   5.6318 0012182 233.2887 126.7191 14.54868585883607
APRIZESAT 5             
1 37792U 11044E   26182.05936221  .00001115  00000+0  14803-3 0  9991
2 37792  98.2451 115.4931 0051257 319.3528  40.3862 14.81105153800846
APRIZESAT 6             
1 37793U 11044F   26182.31650350  .00000949  00000+0  14059-3 0  9994
2 37793  98.2353  93.1040 0044075  42.1004  73.1411 14.76938444799236
PROBA-V                 
1 39159U 13021A   26182.17609072  .00000108  00000+0  65500-4 0  9993
2 39159  98.3593 160.0926 0005441  91.5948 268.5855 14.23600465683108
APRIZESAT 7             
1 39416U 13066A   26182.51010793  .00001141  00000+0  11799-3 0  9990
2 39416  97.7715 135.5246 0036251 161.4667 198.7881 14.91594457683362
APRIZESAT 8             
1 39425U 13066K   26181.79540328  .00000852  00000+0  98132-4 0  9996
2 39425  97.8225 129.0740 0044500 240.2709 119.4076 14.87675981681692
BUGSAT-1 (TITA)         
1 40014U 14033E   26182.62651686  .00007195  00000+0  37718-3 0  9999
2 40014  98.0437 276.0217 0028988 130.0194 230.3588 15.15747971658027
SAUDISAT 4              
1 40016U 14033G   26182.11807731  .00000631  00000+0  89664-4 0  9995
2 40016  97.7600 327.7720 0045415  29.7379 330.6400 14.79562058648131
APRIZESAT 9             
1 40018U 14033J   26182.59687844  .00000837  00000+0  12996-3 0  9991
2 40018  97.9079 315.4445 0066796 152.9387 207.5330 14.74235909645684
APRIZESAT 10            
1 40019U 14033K   26182.61647232  .00000616  00000+0  10443-3 0  9992
2 40019  97.9668 309.2554 0077775 227.0174 132.4496 14.70897191644375
TECHDEMOSAT-1 (TDS-1)   
1 40076U 14037H   26182.50605889  .00009520  00000+0  53548-3 0  9995
2 40076  98.3814 176.1403 0005498 203.7053 156.3923 15.13507231650390
TECHNOSAT               
1 42829U 17042E   26182.01208191  .00002820  00000+0  20199-3 0  9995
2 42829  97.4293 339.1453 0018810  50.5615 309.7273 15.05039143488786
FLYING LAPTOP           
1 42831U 17042G   26182.64980963  .00004505  00000+0  35368-3 0  9997
2 42831  97.4751 337.6318 0020015  75.5812 284.7632 15.01238707488624
HAWK-A                  
1 43765U 18099H   26182.39249832  .00008276  00000+0  33116-3 0  9990
2 43765  97.3903 234.4438 0033452 233.4473 126.3684 15.24811090415268
HAWK-B                  
1 43794U 18099AN  26182.62812101  .00006997  00000+0  29702-3 0  9997
2 43794  97.3950 234.0612 0030357 251.4332 108.3606 15.22979388415231
HAWK-C                  
1 43799U 18099AT  26182.40224685  .00010112  00000+0  36119-3 0  9996
2 43799  97.3880 235.4361 0039086 233.3627 126.4016 15.28303945416084
SALSAT                  
1 46495U 20068K   26182.46936082  .00008603  00000+0  29885-3 0  9992
2 46495  97.8847 186.4054 0007990 246.9386 113.1011 15.30000103317545
HAWK-2C                 
1 47502U 21006CT  26182.17026634  .00008004  00000+0  23906-3 0  9999
2 47502  97.2267 226.2018 0008070 141.0750 219.1076 15.34833898301649
HAWK-2A                 
1 47505U 21006CW  26182.36821108  .00007505  00000+0  22423-3 0  9990
2 47505  97.2308 227.0819 0007549 143.2929 216.8833 15.34849752301672
HAWK-2B                 
1 47508U 21006CZ  26182.10207568  .00009272  00000+0  27544-3 0  9995
2 47508  97.2177 225.1303 0008106 142.7732 217.4075 15.34957815301633
HAWK-3B                 
1 48931U 21059BE  26182.47245720  .00052015  00000+0  41909-3 0  9990
2 48931  97.6641  20.5432 0003368 256.2864 103.8023 15.70761582280097
HAWK-3C                 
1 48948U 21059BX  26182.47213321  .00049801  00000+0  40148-3 0  9993
2 48948  97.6757  26.2531 0003522 257.1349 102.9519 15.70756349280091
HAWK-3A                 
1 48957U 21059CG  26182.47201444  .00051563  00000+0  41558-3 0  9990
2 48957  97.6702  23.4463 0003532 260.1091  99.9771 15.70755505280091
HAWK-5C                 
1 52754U 22057Y   26182.16760095  .00023818  00000+0  39857-3 0  9998
2 52754  97.6610 342.7413 0004010  36.2830 323.8693 15.51882074228518
HAWK-5B                 
1 52756U 22057AA  26182.16742538  .00024315  00000+0  40672-3 0  9992
2 52756  97.6620 341.0916 0004602  27.1390 333.0101 15.51886837228516
