OBJECT_NAME,OBJECT_ID,EPOCH,MEAN_MOTION,ECCENTRICITY,INCLINATION,RA_OF_ASC_NODE,ARG_OF_PERICENTER,MEAN_ANOMALY,EPHEMERIS_TYPE,CLASSIFICATION_TYPE,NORAD_CAT_ID,ELEMENT_SET_NO,REV_AT_EPOCH,BSTAR,MEAN_MOTION_DOT,MEAN_MOTION_DDOT
PROBA-1,2001-049B,2026-07-01T14:33:21.924864,15.07561001,.00567076,97.9593,191.6428,74.6712,286.0772,0,U,26958,999,34579,.23128148E-3,.3576E-4,0
CUTE-1 (CO-55),2003-031E,2026-07-01T12:11:50.949312,14.24344446,.00103876,98.6736,190.8869,138.3809,221.8162,0,U,27844,999,19371,.14842193E-3,.299E-5,0
CUBESAT XI-IV (CO-57),2003-031J,2026-07-01T12:05:34.996992,14.23628338,.00098783,98.6768,190.5840,155.7692,204.3953,0,U,27848,999,19341,.12754573E-3,.247E-5,0
APRIZESAT 4,2009-041D,2026-07-01T03:32:58.403616,14.83897710,.00418876,98.1410,257.7465,276.5074,83.1371,0,U,35684,999,91343,.96134238E-4,.751E-5,0
APRIZESAT 3,2009-041F,2026-07-01T03:25:10.241760,14.96279358,.00620864,98.2078,336.0363,22.0128,338.3737,0,U,35686,999,91846,.91992932E-4,.1011E-4,0
PROBA-2,2009-059B,2026-07-01T11:26:52.400832,14.54868585,.00121822,98.2452,5.6318,233.2887,126.7191,0,U,36037,999,88360,.56485711E-4,.197E-5,0
APRIZESAT 5,2011-044E,2026-07-01T01:25:28.894944,14.81105153,.00512576,98.2451,115.4931,319.3528,40.3862,0,U,37792,999,80084,.14803061E-3,.1115E-4,0
APRIZESAT 6,2011-044F,2026-07-01T07:35:45.902400,14.76938444,.00440752,98.2353,93.1040,42.1004,73.1411,0,U,37793,999,79923,.14059469E-3,.949E-5,0
PROBA-V,2013-021A,2026-07-01T04:13:34.238208,14.23600465,.0005441,98.3593,160.0926,91.5948,268.5855,0,U,39159,999,68310,.6549984E-4,.108E-5,0
APRIZESAT 7,2013-066A,2026-07-01T12:14:33.325152,14.91594457,.00362516,97.7715,135.5246,161.4667,198.7881,0,U,39416,999,68336,.11798978E-3,.1141E-4,0
APRIZESAT 8,2013-066K,2026-06-30T19:05:22.843392,14.87675981,.00445005,97.8225,129.0740,240.2709,119.4076,0,U,39425,999,68169,.98131959E-4,.852E-5,0
BUGSAT-1 (TITA),2014-033E,2026-07-01T15:02:11.056704,15.15747971,.00289886,98.0437,276.0217,130.0194,230.3588,0,U,40014,999,65802,.37718326E-3,.7195E-4,0
SAUDISAT 4,2014-033G,2026-07-01T02:50:01.879584,14.79562058,.00454157,97.7600,327.7720,29.7379,330.6400,0,U,40016,999,64813,.89663663E-4,.631E-5,0
APRIZESAT 9,2014-033J,2026-07-01T14:19:30.297216,14.74235909,.00667961,97.9079,315.4445,152.9387,207.5330,0,U,40018,999,64568,.12996192E-3,.837E-5,0
APRIZESAT 10,2014-033K,2026-07-01T14:47:43.208448,14.70897191,.00777759,97.9668,309.2554,227.0174,132.4496,0,U,40019,999,64437,.10442761E-3,.616E-5,0
TECHDEMOSAT-1 (TDS-1),2014-037H,2026-07-01T12:08:43.488096,15.13507231,.00054982,98.3814,176.1403,203.7053,156.3923,0,U,40076,999,65039,.53547529E-3,.952E-4,0
TECHNOSAT,2017-042E,2026-07-01T00:17:23.877024,15.05039143,.00188103,97.4293,339.1453,50.5615,309.7273,0,U,42829,999,48878,.20199254E-3,.282E-4,0
FLYING LAPTOP,2017-042G,2026-07-01T15:35:43.552032,15.01238707,.00200159,97.4751,337.6318,75.5812,284.7632,0,U,42831,999,48862,.35368308E-3,.4505E-4,0
HAWK-A,2018-099H,2026-07-01T09:25:11.854848,15.24811090,.00334525,97.3903,234.4438,233.4473,126.3684,0,U,43765,999,41526,.33116105E-3,.8276E-4,0
HAWK-B,2018-099AN,2026-07-01T15:04:29.655264,15.22979388,.0030357,97.3950,234.0612,251.4332,108.3606,0,U,43794,999,41523,.29702319E-3,.6997E-4,0
HAWK-C,2018-099AT,2026-07-01T09:39:14.127840,15.28303945,.00390869,97.3880,235.4361,233.3627,126.4016,0,U,43799,999,41608,.36119187E-3,.10112E-3,0
SALSAT,2020-068K,2026-07-01T11:15:52.774848,15.30000103,.00079905,97.8847,186.4054,246.9386,113.1011,0,U,46495,999,31754,.29884673E-3,.8603E-4,0
HAWK-2C,2021-006CT,2026-07-01T04:05:11.011776,15.34833898,.00080702,97.2267,226.2018,141.0750,219.1076,0,U,47502,999,30164,.23905576E-3,.8004E-4,0
HAWK-2A,2021-006CW,2026-07-01T08:50:13.437312,15.34849752,.00075493,97.2308,227.0819,143.2929,216.8833,0,U,47505,999,30167,.22423171E-3,.7505E-4,0
HAWK-2B,2021-006CZ,2026-07-01T02:26:59.338752,15.34957815,.0008106,97.2177,225.1303,142.7732,217.4075,0,U,47508,999,30163,.27544147E-3,.9272E-4,0
HAWK-3B,2021-059BE,2026-07-01T11:20:20.302080,15.70761582,.00033686,97.6641,20.5432,256.2864,103.8023,0,U,48931,999,28009,.4190884E-3,.52015E-3,0
HAWK-3C,2021-059BX,2026-07-01T11:19:52.309344,15.70756349,.00035228,97.6757,26.2531,257.1349,102.9519,0,U,48948,999,28009,.40147971E-3,.49801E-3,0
HAWK-3A,2021-059CG,2026-07-01T11:19:42.047616,15.70755505,.00035329,97.6702,23.4463,260.1091,99.9771,0,U,48957,999,28009,.4155759E-3,.51563E-3,0
HAWK-5C,2022-057Y,2026-07-01T04:01:20.722080,15.51882074,.00040106,97.6610,342.7413,36.2830,323.8693,0,U,52754,999,22851,.39856556E-3,.23818E-3,0
HAWK-5B,2022-057AA,2026-07-01T04:01:05.552832,15.51886837,.00046025,97.6620,341.0916,27.1390,333.0101,0,U,52756,999,22851,.40671765E-3,.24315E-3,0
